[
  {
    "COMMENT": "GENERATED VIA SPACETRACK.ORG API",
    "ORIGINATOR": "JSPOC",
    "NORAD_CAT_ID": "40076",
    "OBJECT_NAME": "TDS 1",
    "OBJECT_TYPE": "PAYLOAD",
    "CLASSIFICATION_TYPE": "U",
    "INTLDES": "14037H",
    "EPOCH": "2017-03-08 12:41:26",
    "EPOCH_MICROSECONDS": "42496",
    "MEAN_MOTION": "14.8130584",
    "ECCENTRICITY": "0.0007118",
    "INCLINATION": "98.3221",
    "RA_OF_ASC_NODE": "174.6756",
    "ARG_OF_PERICENTER": "44.735",
    "MEAN_ANOMALY": "315.4434",
    "EPHEMERIS_TYPE": "0",
    "ELEMENT_SET_NO": "999",
    "REV_AT_EPOCH": "14412",
    "BSTAR": "2.9407e-05",
    "MEAN_MOTION_DOT": "1.72e-06",
    "MEAN_MOTION_DDOT": "0",
    "FILE": "2162420",
    "TLE_LINE0": "0 TDS 1",
    "TLE_LINE1": "1 40076U 14037H   17067.52877364  .00000172  00000-0  29407-4 0  9991",
    "TLE_LINE2": "2 40076  98.3221 174.6756 0007118  44.7350 315.4434 14.81305840144120",
    "OBJECT_ID": "2014-037H",
    "OBJECT_NUMBER": "40076",
    "SEMIMAJOR_AXIS": "7003.342",
    "PERIOD": "97.211",
    "APOGEE": "630.192",
    "PERIGEE": "620.222"
  },
  {
    "COMMENT": "GENERATED VIA SPACETRACK.ORG API",
    "ORIGINATOR": "JSPOC",
    "NORAD_CAT_ID": "40076",
    "OBJECT_NAME": "TDS 1",
    "OBJECT_TYPE": "PAYLOAD",
    "CLASSIFICATION_TYPE": "U",
    "INTLDES": "14037H",
    "EPOCH": "2017-03-08 19:10:30",
    "EPOCH_MICROSECONDS": "863712",
    "MEAN_MOTION": "14.81306077",
    "ECCENTRICITY": "0.0007131",
    "INCLINATION": "98.3222",
    "RA_OF_ASC_NODE": "174.9562",
    "ARG_OF_PERICENTER": "44.0824",
    "MEAN_ANOMALY": "316.096",
    "EPHEMERIS_TYPE": "0",
    "ELEMENT_SET_NO": "999",
    "REV_AT_EPOCH": "14416",
    "BSTAR": "3.0984e-05",
    "MEAN_MOTION_DOT": "1.85e-06",
    "MEAN_MOTION_DDOT": "0",
    "FILE": "2162579",
    "TLE_LINE0": "0 TDS 1",
    "TLE_LINE1": "1 40076U 14037H   17067.79896833  .00000185  00000-0  30984-4 0  9998",
    "TLE_LINE2": "2 40076  98.3222 174.9562 0007131  44.0824 316.0960 14.81306077144161",
    "OBJECT_ID": "2014-037H",
    "OBJECT_NUMBER": "40076",
    "SEMIMAJOR_AXIS": "7003.341",
    "PERIOD": "97.211",
    "APOGEE": "630.200",
    "PERIGEE": "620.212"
  },
  {
    "COMMENT": "GENERATED VIA SPACETRACK.ORG API",
    "ORIGINATOR": "JSPOC",
    "NORAD_CAT_ID": "40076",
    "OBJECT_NAME": "TDS 1",
    "OBJECT_TYPE": "PAYLOAD",
    "CLASSIFICATION_TYPE": "U",
    "INTLDES": "14037H",
    "EPOCH": "2017-03-09 04:54:08",
    "EPOCH_MICROSECONDS": "99424",
    "MEAN_MOTION": "14.81306016",
    "ECCENTRICITY": "0.0007025",
    "INCLINATION": "98.3225",
    "RA_OF_ASC_NODE": "175.3776",
    "ARG_OF_PERICENTER": "44.629",
    "MEAN_ANOMALY": "315.55",
    "EPHEMERIS_TYPE": "0",
    "ELEMENT_SET_NO": "999",
    "REV_AT_EPOCH": "14422",
    "BSTAR": "2.7218e-05",
    "MEAN_MOTION_DOT": "1.55e-06",
    "MEAN_MOTION_DDOT": "0",
    "FILE": "2162637",
    "TLE_LINE0": "0 TDS 1",
    "TLE_LINE1": "1 40076U 14037H   17068.20426041  .00000155  00000-0  27218-4 0  9998",
    "TLE_LINE2": "2 40076  98.3225 175.3776 0007025  44.6290 315.5500 14.81306016144225",
    "OBJECT_ID": "2014-037H",
    "OBJECT_NUMBER": "40076",
    "SEMIMAJOR_AXIS": "7003.341",
    "PERIOD": "97.211",
    "APOGEE": "630.126",
    "PERIGEE": "620.286"
  },
  {
    "COMMENT": "GENERATED VIA SPACETRACK.ORG API",
    "ORIGINATOR": "JSPOC",
    "NORAD_CAT_ID": "40076",
    "OBJECT_NAME": "TDS 1",
    "OBJECT_TYPE": "PAYLOAD",
    "CLASSIFICATION_TYPE": "U",
    "INTLDES": "14037H",
    "EPOCH": "2017-03-09 11:23:12",
    "EPOCH_MICROSECONDS": "898176",
    "MEAN_MOTION": "14.81306227",
    "ECCENTRICITY": "0.0007065",
    "INCLINATION": "98.3222",
    "RA_OF_ASC_NODE": "175.6577",
    "ARG_OF_PERICENTER": "42.5575",
    "MEAN_ANOMALY": "317.6185",
    "EPHEMERIS_TYPE": "0",
    "ELEMENT_SET_NO": "999",
    "REV_AT_EPOCH": "14426",
    "BSTAR": "2.799e-05",
    "MEAN_MOTION_DOT": "1.61e-06",
    "MEAN_MOTION_DDOT": "0",
    "FILE": "2162849",
    "TLE_LINE0": "0 TDS 1",
    "TLE_LINE1": "1 40076U 14037H   17068.47445484  .00000161  00000-0  27990-4 0  9993",
    "TLE_LINE2": "2 40076  98.3222 175.6577 0007065  42.5575 317.6185 14.81306227144261",
    "OBJECT_ID": "2014-037H",
    "OBJECT_NUMBER": "40076",
    "SEMIMAJOR_AXIS": "7003.341",
    "PERIOD": "97.211",
    "APOGEE": "630.153",
    "PERIGEE": "620.258"
  },
  {
    "COMMENT": "GENERATED VIA SPACETRACK.ORG API",
    "ORIGINATOR": "JSPOC",
    "NORAD_CAT_ID": "40076",
    "OBJECT_NAME": "TDS 1",
    "OBJECT_TYPE": "PAYLOAD",
    "CLASSIFICATION_TYPE": "U",
    "INTLDES": "14037H",
    "EPOCH": "2017-03-09 19:29:33",
    "EPOCH_MICROSECONDS": "912384",
    "MEAN_MOTION": "14.81306377",
    "ECCENTRICITY": "0.0007058",
    "INCLINATION": "98.3222",
    "RA_OF_ASC_NODE": "176.0084",
    "ARG_OF_PERICENTER": "41.5413",
    "MEAN_ANOMALY": "318.6334",
    "EPHEMERIS_TYPE": "0",
    "ELEMENT_SET_NO": "999",
    "REV_AT_EPOCH": "14431",
    "BSTAR": "2.801e-05",
    "MEAN_MOTION_DOT": "1.61e-06",
    "MEAN_MOTION_DDOT": "0",
    "FILE": "2163023",
    "TLE_LINE0": "0 TDS 1",
    "TLE_LINE1": "1 40076U 14037H   17068.81219806  .00000161  00000-0  28010-4 0  9992",
    "TLE_LINE2": "2 40076  98.3222 176.0084 0007058  41.5413 318.6334 14.81306377144310",
    "OBJECT_ID": "2014-037H",
    "OBJECT_NUMBER": "40076",
    "SEMIMAJOR_AXIS": "7003.340",
    "PERIOD": "97.211",
    "APOGEE": "630.148",
    "PERIGEE": "620.262"
  },
  {
    "COMMENT": "GENERATED VIA SPACETRACK.ORG API",
    "ORIGINATOR": "JSPOC",
    "NORAD_CAT_ID": "40076",
    "OBJECT_NAME": "TDS 1",
    "OBJECT_TYPE": "PAYLOAD",
    "CLASSIFICATION_TYPE": "U",
    "INTLDES": "14037H",
    "EPOCH": "2017-03-10 03:35:54",
    "EPOCH_MICROSECONDS": "949056",
    "MEAN_MOTION": "14.81306207",
    "ECCENTRICITY": "0.000703",
    "INCLINATION": "98.3222",
    "RA_OF_ASC_NODE": "176.359",
    "ARG_OF_PERICENTER": "40.7747",
    "MEAN_ANOMALY": "319.3983",
    "EPHEMERIS_TYPE": "0",
    "ELEMENT_SET_NO": "999",
    "REV_AT_EPOCH": "14436",
    "BSTAR": "2.3877e-05",
    "MEAN_MOTION_DOT": "1.29e-06",
    "MEAN_MOTION_DDOT": "0",
    "FILE": "2163154",
    "TLE_LINE0": "0 TDS 1",
    "TLE_LINE1": "1 40076U 14037H   17069.14994154  .00000129  00000-0  23877-4 0  9995",
    "TLE_LINE2": "2 40076  98.3222 176.3590 0007030  40.7747 319.3983 14.81306207144361",
    "OBJECT_ID": "2014-037H",
    "OBJECT_NUMBER": "40076",
    "SEMIMAJOR_AXIS": "7003.341",
    "PERIOD": "97.211",
    "APOGEE": "630.129",
    "PERIGEE": "620.282"
  },
  {
    "COMMENT": "GENERATED VIA SPACETRACK.ORG API",
    "ORIGINATOR": "JSPOC",
    "NORAD_CAT_ID": "40076",
    "OBJECT_NAME": "TDS 1",
    "OBJECT_TYPE": "PAYLOAD",
    "CLASSIFICATION_TYPE": "U",
    "INTLDES": "14037H",
    "EPOCH": "2017-03-10 11:42:15",
    "EPOCH_MICROSECONDS": "973632",
    "MEAN_MOTION": "14.81306333",
    "ECCENTRICITY": "0.0007035",
    "INCLINATION": "98.3222",
    "RA_OF_ASC_NODE": "176.7096",
    "ARG_OF_PERICENTER": "39.6945",
    "MEAN_ANOMALY": "320.4778",
    "EPHEMERIS_TYPE": "0",
    "ELEMENT_SET_NO": "999",
    "REV_AT_EPOCH": "14441",
    "BSTAR": "2.3598e-05",
    "MEAN_MOTION_DOT": "1.27e-06",
    "MEAN_MOTION_DDOT": "0",
    "FILE": "2163288",
    "TLE_LINE0": "0 TDS 1",
    "TLE_LINE1": "1 40076U 14037H   17069.48768488  .00000127  00000-0  23598-4 0  9999",
    "TLE_LINE2": "2 40076  98.3222 176.7096 0007035  39.6945 320.4778 14.81306333144419",
    "OBJECT_ID": "2014-037H",
    "OBJECT_NUMBER": "40076",
    "SEMIMAJOR_AXIS": "7003.340",
    "PERIOD": "97.211",
    "APOGEE": "630.132",
    "PERIGEE": "620.278"
  },
  {
    "COMMENT": "GENERATED VIA SPACETRACK.ORG API",
    "ORIGINATOR": "JSPOC",
    "NORAD_CAT_ID": "40076",
    "OBJECT_NAME": "TDS 1",
    "OBJECT_TYPE": "PAYLOAD",
    "CLASSIFICATION_TYPE": "U",
    "INTLDES": "14037H",
    "EPOCH": "2017-03-10 19:48:36",
    "EPOCH_MICROSECONDS": "995616",
    "MEAN_MOTION": "14.81306416",
    "ECCENTRICITY": "0.0007034",
    "INCLINATION": "98.3223",
    "RA_OF_ASC_NODE": "177.0602",
    "ARG_OF_PERICENTER": "38.4214",
    "MEAN_ANOMALY": "321.7494",
    "EPHEMERIS_TYPE": "0",
    "ELEMENT_SET_NO": "999",
    "REV_AT_EPOCH": "14446",
    "BSTAR": "2.3318e-05",
    "MEAN_MOTION_DOT": "1.25e-06",
    "MEAN_MOTION_DDOT": "0",
    "FILE": "2163530",
    "TLE_LINE0": "0 TDS 1",
    "TLE_LINE1": "1 40076U 14037H   17069.82542819  .00000125  00000-0  23318-4 0  9993",
    "TLE_LINE2": "2 40076  98.3223 177.0602 0007034  38.4214 321.7494 14.81306416144468",
    "OBJECT_ID": "2014-037H",
    "OBJECT_NUMBER": "40076",
    "SEMIMAJOR_AXIS": "7003.340",
    "PERIOD": "97.211",
    "APOGEE": "630.131",
    "PERIGEE": "620.279"
  },
  {
    "COMMENT": "GENERATED VIA SPACETRACK.ORG API",
    "ORIGINATOR": "JSPOC",
    "NORAD_CAT_ID": "40076",
    "OBJECT_NAME": "TDS 1",
    "OBJECT_TYPE": "PAYLOAD",
    "CLASSIFICATION_TYPE": "U",
    "INTLDES": "14037H",
    "EPOCH": "2017-03-11 03:54:58",
    "EPOCH_MICROSECONDS": "56480",
    "MEAN_MOTION": "14.81306098",
    "ECCENTRICITY": "0.0006994",
    "INCLINATION": "98.3223",
    "RA_OF_ASC_NODE": "177.4109",
    "ARG_OF_PERICENTER": "37.7938",
    "MEAN_ANOMALY": "322.3756",
    "EPHEMERIS_TYPE": "0",
    "ELEMENT_SET_NO": "999",
    "REV_AT_EPOCH": "14451",
    "BSTAR": "1.8172e-05",
    "MEAN_MOTION_DOT": "8.5e-07",
    "MEAN_MOTION_DDOT": "0",
    "FILE": "2163676",
    "TLE_LINE0": "0 TDS 1",
    "TLE_LINE1": "1 40076U 14037H   17070.16317195  .00000085  00000-0  18172-4 0  9996",
    "TLE_LINE2": "2 40076  98.3223 177.4109 0006994  37.7938 322.3756 14.81306098144513",
    "OBJECT_ID": "2014-037H",
    "OBJECT_NUMBER": "40076",
    "SEMIMAJOR_AXIS": "7003.341",
    "PERIOD": "97.211",
    "APOGEE": "630.104",
    "PERIGEE": "620.308"
  }
]
